OBJECT_NAME,OBJECT_ID,EPOCH,MEAN_MOTION,ECCENTRICITY,INCLINATION,RA_OF_ASC_NODE,ARG_OF_PERICENTER,MEAN_ANOMALY,EPHEMERIS_TYPE,CLASSIFICATION_TYPE,NORAD_CAT_ID,ELEMENT_SET_NO,REV_AT_EPOCH,BSTAR,MEAN_MOTION_DOT,MEAN_MOTION_DDOT
RESURS-DK 1,2006-021A,2026-06-19T11:32:53.465568,15.13225616,.00068801,69.9330,333.6151,290.7888,69.2541,0,U,29228,999,10292,.93163662E-4,.1551E-4,0
CZ-4B R/B,2006-046C,2026-06-19T16:36:42.331104,15.17798466,.0030946,97.5448,215.2916,273.5810,86.1885,0,U,29507,999,7551,.1484E-3,.2965E-4,0
CZ-2C R/B,2007-010B,2026-06-19T12:36:53.611200,14.20276541,.00588728,98.4102,278.7621,359.3184,0.7904,0,U,31114,999,99417,.42794361E-4,.52E-6,0
COSMO-SKYMED 1,2007-023A,2026-06-19T19:24:13.525632,14.97110711,.0001499,97.8850,2.6860,98.2997,261.8394,0,U,31598,999,3018,.2006E-3,.2255E-4,0
COSMOS 2428,2007-029A,2026-06-19T16:36:58.421376,14.12927893,.0007129,70.9350,349.2175,130.2415,229.9330,0,U,31792,999,97850,-.25886E-4,-.96E-6,0
SL-16 R/B,2007-029B,2026-06-19T17:34:08.580864,14.14855646,.0002378,70.9771,317.8782,262.8180,192.4229,0,U,31793,999,97980,.28986E-4,.8E-7,0
KORONAS-FOTON,2009-003A,2026-06-19T11:22:10.322112,15.45761286,.0011897,82.4289,169.8742,140.0965,220.1160,0,U,33504,999,96145,.20420337E-3,.9943E-4,0
CZ-2C R/B,2011-030B,2026-06-19T08:30:31.963968,14.81476109,.00528864,97.8655,125.7015,21.0278,131.5769,0,U,37731,999,80514,.13261401E-3,.1009E-4,0
H-2A R/B,2012-025E,2026-06-19T11:57:36.124128,14.95730025,.00434963,98.4833,145.8345,341.6252,18.3393,0,U,38341,999,76343,.15714702E-3,.1712E-4,0
SHIJIAN-16 (SJ-16),2013-057A,2026-06-19T20:28:59.032992,14.92607008,.0016728,74.9728,351.6328,224.5649,135.4195,0,U,39358,999,68674,.36019E-4,.342E-5,0
SL-4 R/B,2014-021B,2026-06-19T07:58:19.329024,15.41991615,.00911474,51.6042,200.2620,113.7762,247.2814,0,U,39679,999,67194,.16587932E-3,.788E-4,0
ALOS-2,2014-029A,2026-06-19T20:16:03.230976,14.79476609,.0001677,97.9222,267.9701,90.9592,269.1812,0,U,39766,999,65197,.18236E-3,.1311E-4,0
YAOGAN-29,2015-069A,2026-06-19T21:02:12.522912,14.83084768,.0002495,98.0022,199.5139,49.7958,310.3473,0,U,41038,999,57102,-.39493E-4,-.376E-5,0
ASTRO-H (HITOMI),2016-012A,2026-06-19T03:34:18.179328,15.10517915,.00097746,30.9995,61.5179,273.2762,86.6758,0,U,41337,999,56758,.11243593E-3,.1996E-4,0
HXMT (HUIYAN),2017-034A,2026-06-19T19:57:00.514080,15.18489449,.0030937,43.0125,168.3175,164.2204,195.9615,0,U,42758,999,49806,.11746E-3,.2249E-4,0
SAOCOM 1A,2018-076A,2026-06-19T20:04:30.737568,14.82151219,.0001601,97.8883,357.5462,79.9673,280.1720,0,U,43641,999,41649,.61425E-4,.437E-5,0
H-2A R/B,2018-084L,2026-06-19T20:21:11.425824,15.45240334,.0023225,98.8568,50.3189,31.5393,328.7238,0,U,43682,999,42153,.36254E-3,.17306E-3,0
SAOCOM 1B,2020-059A,2026-06-19T19:12:09.859104,14.82147160,.0001592,97.8885,356.6051,84.2627,275.8767,0,U,46265,999,31387,.37404E-4,.245E-5,0
CSS (TIANHE),2021-035A,2026-06-19T17:28:49.104768,15.60907257,.000735,41.4696,306.5363,99.2772,260.8898,0,U,48274,999,29356,.23343E-3,.19835E-3,0
COSMOS 2550,2021-056A,2026-06-19T19:52:19.949088,15.33836534,.0008418,67.1431,91.9178,268.7309,91.2881,0,U,48865,999,27912,.16089E-3,.5106E-4,0
CZ-2C R/B,2022-058K,2026-06-19T10:00:53.519904,15.61996467,.00324688,50.1848,151.9127,277.2329,82.4954,0,U,52794,999,22599,.39544038E-3,.35796E-3,0
CZ-2C R/B,2022-132E,2026-06-19T13:43:38.078400,15.71740322,.00157108,97.2905,177.7027,76.9211,283.3805,0,U,54039,999,20632,.43004627E-3,.56019E-3,0
GSLV R/B,2022-138AN,2026-06-19T20:35:27.623904,14.97267052,.0023184,87.3805,132.0874,134.6590,225.6537,0,U,54149,999,19921,.16264E-3,.1923E-4,0
XRISM,2023-137A,2026-06-19T19:55:49.713600,15.12486514,.0007927,31.0032,342.4799,350.1352,9.9130,0,U,57800,999,15326,.2258E-3,.4128E-4,0
ACS3,2024-077B,2026-06-19T12:03:12.008448,13.94234122,.00802963,97.1690,88.7765,62.1682,298.7592,0,U,59588,999,10836,.29198019E-1,.39988E-3,0
CZ-8A R/B,2025-231K,2026-06-19T06:54:43.352928,14.30155399,.01164836,50.0053,30.3782,231.4081,127.6356,0,U,66004,999,3524,.51914506E-4,-.18E-6,0
SZ-21 MODULE,2025-246C,2026-06-19T14:57:10.817568,15.76588492,.00059262,41.4730,292.1532,7.7871,352.3065,0,U,66515,999,3412,.24285803E-3,.39794E-3,0
